<?xml version="1.0" encoding="UTF-8"?>
<ndm xmlns:xsi="http://www.w3.org/2001/XMLSchema-instance" xsi:noNamespaceSchemaLocation="https://sanaregistry.org/r/ndmxml_unqualified/ndmxml-2.0.0-master-2.0.xsd">
<omm id="CCSDS_OMM_VERS" version="2.0">
<header><CREATION_DATE/><ORIGINATOR/></header><body><segment><metadata><OBJECT_NAME>IRIDIUM 63</OBJECT_NAME><OBJECT_ID>1998-021B</OBJECT_ID><CENTER_NAME>EARTH</CENTER_NAME><REF_FRAME>TEME</REF_FRAME><TIME_SYSTEM>UTC</TIME_SYSTEM><MEAN_ELEMENT_THEORY>SGP4</MEAN_ELEMENT_THEORY></metadata><data><meanElements><EPOCH>2026-01-07T16:11:29.715936</EPOCH><MEAN_MOTION>14.36762057</MEAN_MOTION><ECCENTRICITY>.0002072</ECCENTRICITY><INCLINATION>86.3989</INCLINATION><RA_OF_ASC_NODE>356.3289</RA_OF_ASC_NODE><ARG_OF_PERICENTER>82.3790</ARG_OF_PERICENTER><MEAN_ANOMALY>277.7643</MEAN_ANOMALY></meanElements><tleParameters><EPHEMERIS_TYPE>0</EPHEMERIS_TYPE><CLASSIFICATION_TYPE>U</CLASSIFICATION_TYPE><NORAD_CAT_ID>25286</NORAD_CAT_ID><ELEMENT_SET_NO>999</ELEMENT_SET_NO><REV_AT_EPOCH>45320</REV_AT_EPOCH><BSTAR>.16632E-3</BSTAR><MEAN_MOTION_DOT>.51E-5</MEAN_MOTION_DOT><MEAN_MOTION_DDOT>0</MEAN_MOTION_DDOT></tleParameters></data></segment></body></omm>
<omm id="CCSDS_OMM_VERS" version="2.0">
<header><CREATION_DATE/><ORIGINATOR/></header><body><segment><metadata><OBJECT_NAME>IRIDIUM 69</OBJECT_NAME><OBJECT_ID>1998-026A</OBJECT_ID><CENTER_NAME>EARTH</CENTER_NAME><REF_FRAME>TEME</REF_FRAME><TIME_SYSTEM>UTC</TIME_SYSTEM><MEAN_ELEMENT_THEORY>SGP4</MEAN_ELEMENT_THEORY></metadata><data><meanElements><EPOCH>2026-01-07T18:01:21.157248</EPOCH><MEAN_MOTION>14.41244372</MEAN_MOTION><ECCENTRICITY>.0004524</ECCENTRICITY><INCLINATION>86.3972</INCLINATION><RA_OF_ASC_NODE>8.9385</RA_OF_ASC_NODE><ARG_OF_PERICENTER>78.2404</ARG_OF_PERICENTER><MEAN_ANOMALY>281.9303</MEAN_ANOMALY></meanElements><tleParameters><EPHEMERIS_TYPE>0</EPHEMERIS_TYPE><CLASSIFICATION_TYPE>U</CLASSIFICATION_TYPE><NORAD_CAT_ID>25319</NORAD_CAT_ID><ELEMENT_SET_NO>999</ELEMENT_SET_NO><REV_AT_EPOCH>45252</REV_AT_EPOCH><BSTAR>.14286E-3</BSTAR><MEAN_MOTION_DOT>.481E-5</MEAN_MOTION_DOT><MEAN_MOTION_DDOT>0</MEAN_MOTION_DDOT></tleParameters></data></segment></body></omm>
<omm id="CCSDS_OMM_VERS" version="2.0">
<header><CREATION_DATE/><ORIGINATOR/></header><body><segment><metadata><OBJECT_NAME>IRIDIUM 71</OBJECT_NAME><OBJECT_ID>1998-026B</OBJECT_ID><CENTER_NAME>EARTH</CENTER_NAME><REF_FRAME>TEME</REF_FRAME><TIME_SYSTEM>UTC</TIME_SYSTEM><MEAN_ELEMENT_THEORY>SGP4</MEAN_ELEMENT_THEORY></metadata><data><meanElements><EPOCH>2026-01-07T17:39:47.212704</EPOCH><MEAN_MOTION>14.41338012</MEAN_MOTION><ECCENTRICITY>.0003971</ECCENTRICITY><INCLINATION>86.3975</INCLINATION><RA_OF_ASC_NODE>3.6158</RA_OF_ASC_NODE><ARG_OF_PERICENTER>110.5124</ARG_OF_PERICENTER><MEAN_ANOMALY>249.6502</MEAN_ANOMALY></meanElements><tleParameters><EPHEMERIS_TYPE>0</EPHEMERIS_TYPE><CLASSIFICATION_TYPE>U</CLASSIFICATION_TYPE><NORAD_CAT_ID>25320</NORAD_CAT_ID><ELEMENT_SET_NO>999</ELEMENT_SET_NO><REV_AT_EPOCH>45305</REV_AT_EPOCH><BSTAR>.11325E-3</BSTAR><MEAN_MOTION_DOT>.386E-5</MEAN_MOTION_DOT><MEAN_MOTION_DDOT>0</MEAN_MOTION_DDOT></tleParameters></data></segment></body></omm>
<omm id="CCSDS_OMM_VERS" version="2.0">
<header><CREATION_DATE/><ORIGINATOR/></header><body><segment><metadata><OBJECT_NAME>IRIDIUM 73</OBJECT_NAME><OBJECT_ID>1998-032C</OBJECT_ID><CENTER_NAME>EARTH</CENTER_NAME><REF_FRAME>TEME</REF_FRAME><TIME_SYSTEM>UTC</TIME_SYSTEM><MEAN_ELEMENT_THEORY>SGP4</MEAN_ELEMENT_THEORY></metadata><data><meanElements><EPOCH>2026-01-07T19:53:00.208032</EPOCH><MEAN_MOTION>14.52034777</MEAN_MOTION><ECCENTRICITY>.0002637</ECCENTRICITY><INCLINATION>86.4429</INCLINATION><RA_OF_ASC_NODE>319.9025</RA_OF_ASC_NODE><ARG_OF_PERICENTER>72.2335</ARG_OF_PERICENTER><MEAN_ANOMALY>287.9159</MEAN_ANOMALY></meanElements><tleParameters><EPHEMERIS_TYPE>0</EPHEMERIS_TYPE><CLASSIFICATION_TYPE>U</CLASSIFICATION_TYPE><NORAD_CAT_ID>25344</NORAD_CAT_ID><ELEMENT_SET_NO>999</ELEMENT_SET_NO><REV_AT_EPOCH>46025</REV_AT_EPOCH><BSTAR>.19603E-3</BSTAR><MEAN_MOTION_DOT>.813E-5</MEAN_MOTION_DOT><MEAN_MOTION_DDOT>0</MEAN_MOTION_DDOT></tleParameters></data></segment></body></omm>
<omm id="CCSDS_OMM_VERS" version="2.0">
<header><CREATION_DATE/><ORIGINATOR/></header><body><segment><metadata><OBJECT_NAME>IRIDIUM 82</OBJECT_NAME><OBJECT_ID>1998-051A</OBJECT_ID><CENTER_NAME>EARTH</CENTER_NAME><REF_FRAME>TEME</REF_FRAME><TIME_SYSTEM>UTC</TIME_SYSTEM><MEAN_ELEMENT_THEORY>SGP4</MEAN_ELEMENT_THEORY></metadata><data><meanElements><EPOCH>2026-01-07T12:12:45.891936</EPOCH><MEAN_MOTION>15.49228484</MEAN_MOTION><ECCENTRICITY>.0055741</ECCENTRICITY><INCLINATION>86.3596</INCLINATION><RA_OF_ASC_NODE>8.1067</RA_OF_ASC_NODE><ARG_OF_PERICENTER>229.7759</ARG_OF_PERICENTER><MEAN_ANOMALY>129.8617</MEAN_ANOMALY></meanElements><tleParameters><EPHEMERIS_TYPE>0</EPHEMERIS_TYPE><CLASSIFICATION_TYPE>U</CLASSIFICATION_TYPE><NORAD_CAT_ID>25467</NORAD_CAT_ID><ELEMENT_SET_NO>999</ELEMENT_SET_NO><REV_AT_EPOCH>45538</REV_AT_EPOCH><BSTAR>.6915E-3</BSTAR><MEAN_MOTION_DOT>.40317E-3</MEAN_MOTION_DOT><MEAN_MOTION_DDOT>0</MEAN_MOTION_DDOT></tleParameters></data></segment></body></omm>
</ndm>
