IRIDIUM 63              
1 25286U 98021B   26007.67464949  .00000510  00000+0  16632-3 0  9993
2 25286  86.3989 356.3289 0002072  82.3790 277.7643 14.36762057453205
IRIDIUM 69              
1 25319U 98026A   26007.75093932  .00000481  00000+0  14286-3 0  9994
2 25319  86.3972   8.9385 0004524  78.2404 281.9303 14.41244372452526
IRIDIUM 71              
1 25320U 98026B   26007.73596311  .00000386  00000+0  11325-3 0  9998
2 25320  86.3975   3.6158 0003971 110.5124 249.6502 14.41338012453051
IRIDIUM 73              
1 25344U 98032C   26007.82847463  .00000813  00000+0  19603-3 0  9990
2 25344  86.4429 319.9025 0002637  72.2335 287.9159 14.52034777460250
IRIDIUM 82              
1 25467U 98051A   26007.50886449  .00040317  00000+0  69150-3 0  9994
2 25467  86.3596   8.1067 0055741 229.7759 129.8617 15.49228484455384
